{"type": "FeatureCollection", "features": [ {"type": "Feature", "properties": {"norad_id": 38197, "name": "COSMOS 2251 DEB", "group": "cosmos-2251-debris", "lat": -73.40061673538126, "lon": -83.05693136113908, "alt_km": 591.9800486865761, "timestamp": "2025-12-15T07:02:38.012975+00:00", "meta": {"OBJECT_NAME": "COSMOS 2251 DEB", "OBJECT_ID": "1993-036BSM", "EPOCH": "2025-12-14T07:00:04.920768", "MEAN_MOTION": 14.74139747, "ECCENTRICITY": 0.0125907, "INCLINATION": 73.9403, "RA_OF_ASC_NODE": 354.0006, "ARG_OF_PERICENTER": 231.0385, "MEAN_ANOMALY": 127.9518, "EPHEMERIS_TYPE": 0, "CLASSIFICATION_TYPE": "U", "NORAD_CAT_ID": 38197, "ELEMENT_SET_NO": 999, "REV_AT_EPOCH": 85778, "BSTAR": 0.003963351, "MEAN_MOTION_DOT": 0.00029782, "MEAN_MOTION_DDOT": 0}, "tle": {"line1": "1 38197U 93036BSM 25348.29172362  .00029782  00000+0  39634-2 0  9997", "line2": "2 38197  73.9403 354.0006 0125907 231.0385 127.9518 14.74139747857785"}}, "geometry": {"type": "Point", "coordinates": [-83.05693136113908, -73.40061673538126]}}, {"type": "Feature", "properties": {"norad_id": 38199, "name": "COSMOS 2251 DEB", "group": "cosmos-2251-debris", "lat": 37.59877156682337, "lon": -134.80862487699216, "alt_km": 1264.380350121619, "timestamp": "2025-12-15T07:02:38.012985+00:00", "meta": {"OBJECT_NAME": "COSMOS 2251 DEB", "OBJECT_ID": "1993-036BSP", "EPOCH": "2025-12-14T12:46:10.366752", "MEAN_MOTION": 13.6479649, "ECCENTRICITY": 0.03697095, "INCLINATION": 73.9561, "RA_OF_ASC_NODE": 59.2441, "ARG_OF_PERICENTER": 345.3717, "MEAN_ANOMALY": 13.6916, "EPHEMERIS_TYPE": 0, "CLASSIFICATION_TYPE": "U", "NORAD_CAT_ID": 38199, "ELEMENT_SET_NO": 999, "REV_AT_EPOCH": 61046, "BSTAR": 0.00058391459, "MEAN_MOTION_DOT": 7.27e-06, "MEAN_MOTION_DDOT": 0}, "tle": {"line1": "1 38199U 93036BSP 25348.53206443  .00000727  00000+0  58391-3 0  9994", "line2": "2 38199  73.9561  59.2441 0369709 345.3717  13.6916 13.64796490610464"}}, "geometry": {"type": "Point", "coordinates": [-134.80862487699216, 37.59877156682337]}}, {"type": "Feature", "properties": {"norad_id": 38208, "name": "COSMOS 2251 DEB", "group": "cosmos-2251-debris", "lat": -44.83262753379544, "lon": 57.27125070717926, "alt_km": 624.4104918743842, "timestamp": "2025-12-15T07:02:38.012995+00:00", "meta": {"OBJECT_NAME": "COSMOS 2251 DEB", "OBJECT_ID": "1993-036BSY", "EPOCH": "2025-12-13T17:06:55.631232", "MEAN_MOTION": 14.83950363, "ECCENTRICITY": 0.00020433, "INCLINATION": 74.0053, "RA_OF_ASC_NODE": 76.977, "ARG_OF_PERICENTER": 155.4201, "MEAN_ANOMALY": 358.2431, "EPHEMERIS_TYPE": 0, "CLASSIFICATION_TYPE": "U", "NORAD_CAT_ID": 38208, "ELEMENT_SET_NO": 999, "REV_AT_EPOCH": 71173, "BSTAR": 0.0025143391, "MEAN_MOTION_DOT": 0.00020943, "MEAN_MOTION_DDOT": 0}, "tle": {"line1": "1 38208U 93036BSY 25347.71314388  .00020943  00000+0  25143-2 0  9992", "line2": "2 38208  74.0053  76.9770 0002043 155.4201 358.2431 14.83950363711732"}}, "geometry": {"type": "Point", "coordinates": [57.27125070717926, -44.83262753379544]}}, {"type": "Feature", "properties": {"norad_id": 38212, "name": "COSMOS 2251 DEB", "group": "cosmos-2251-debris", "lat": -25.803367809925593, "lon": -100.46107862268946, "alt_km": 618.0568902225014, "timestamp": "2025-12-15T07:02:38.013005+00:00", "meta": {"OBJECT_NAME": "COSMOS 2251 DEB", "OBJECT_ID": "1993-036BTC", "EPOCH": "2025-12-13T23:14:48.711840", "MEAN_MOTION": 14.77697426, "ECCENTRICITY": 0.00923484, "INCLINATION": 74.0527, "RA_OF_ASC_NODE": 74.1891, "ARG_OF_PERICENTER": 140.8526, "MEAN_ANOMALY": 219.9379, "EPHEMERIS_TYPE": 0, "CLASSIFICATION_TYPE": "U", "NORAD_CAT_ID": 38212, "ELEMENT_SET_NO": 999, "REV_AT_EPOCH": 81328, "BSTAR": 0.00051158029, "MEAN_MOTION_DOT": 3.901e-05, "MEAN_MOTION_DDOT": 0}, "tle": {"line1": "1 38212U 93036BTC 25347.96861935  .00003901  00000+0  51158-3 0  9990", "line2": "2 38212  74.0527  74.1891 0092348 140.8526 219.9379 14.77697426813280"}}, "geometry": {"type": "Point", "coordinates": [-100.46107862268946, -25.803367809925593]}}, {"type": "Feature", "properties": {"norad_id": 38220, "name": "COSMOS 2251 DEB", "group": "cosmos-2251-debris", "lat": 42.13239836968812, "lon": -131.87480407370435, "alt_km": 584.4956072378482, "timestamp": "2025-12-15T07:02:38.013016+00:00", "meta": {"OBJECT_NAME": "COSMOS 2251 DEB", "OBJECT_ID": "1993-036BTL", "EPOCH": "2025-12-11T22:01:48.758016", "MEAN_MOTION": 14.92850575, "ECCENTRICITY": 0.0004483, "INCLINATION": 74.014, "RA_OF_ASC_NODE": 69.9473, "ARG_OF_PERICENTER": 50.1596, "MEAN_ANOMALY": 309.9981, "EPHEMERIS_TYPE": 0, "CLASSIFICATION_TYPE": "U", "NORAD_CAT_ID": 38220, "ELEMENT_SET_NO": 999, "REV_AT_EPOCH": 71358, "BSTAR": 0.0045219, "MEAN_MOTION_DOT": 0.00047133, "MEAN_MOTION_DDOT": 0}, "tle": {"line1": "1 38220U 93036BTL 25345.91792544  .00047133  00000+0  45219-2 0  9996", "line2": "2 38220  74.0140  69.9473 0004483  50.1596 309.9981 14.92850575713585"}}, "geometry": {"type": "Point", "coordinates": [-131.87480407370435, 42.13239836968812]}}, {"type": "Feature", "properties": {"norad_id": 38479, "name": "COSMOS 2251 DEB", "group": "cosmos-2251-debris", "lat": 54.65144054910945, "lon": -24.28181440360866, "alt_km": 816.7926108926531, "timestamp": "2025-12-15T07:02:38.013026+00:00", "meta": {"OBJECT_NAME": "COSMOS 2251 DEB", "OBJECT_ID": "1993-036BTP", "EPOCH": "2025-12-13T19:29:32.997408", "MEAN_MOTION": 14.3831318, "ECCENTRICITY": 0.0084157, "INCLINATION": 74.007, "RA_OF_ASC_NODE": 182.3013, "ARG_OF_PERICENTER": 291.0961, "MEAN_ANOMALY": 83.9532, "EPHEMERIS_TYPE": 0, "CLASSIFICATION_TYPE": "U", "NORAD_CAT_ID": 38479, "ELEMENT_SET_NO": 999, "REV_AT_EPOCH": 64703, "BSTAR": 0.0021939338, "MEAN_MOTION_DOT": 6.938e-05, "MEAN_MOTION_DDOT": 0}, "tle": {"line1": "1 38479U 93036BTP 25347.81218747  .00006938  00000+0  21939-2 0  9992", "line2": "2 38479  74.0070 182.3013 0084157 291.0961  83.9532 14.38313180647034"}}, "geometry": {"type": "Point", "coordinates": [-24.28181440360866, 54.65144054910945]}}, {"type": "Feature", "properties": {"norad_id": 38481, "name": "COSMOS 2251 DEB", "group": "cosmos-2251-debris", "lat": -10.937827516581006, "lon": -0.04667508414751857, "alt_km": 794.4867285054097, "timestamp": "2025-12-15T07:02:38.013036+00:00", "meta": {"OBJECT_NAME": "COSMOS 2251 DEB", "OBJECT_ID": "1993-036BTR", "EPOCH": "2025-12-11T08:25:34.899168", "MEAN_MOTION": 13.94814903, "ECCENTRICITY": 0.02344672, "INCLINATION": 73.9331, "RA_OF_ASC_NODE": 9.956, "ARG_OF_PERICENTER": 310.478, "MEAN_ANOMALY": 47.6118, "EPHEMERIS_TYPE": 0, "CLASSIFICATION_TYPE": "U", "NORAD_CAT_ID": 38481, "ELEMENT_SET_NO": 999, "REV_AT_EPOCH": 59041, "BSTAR": 0.0026201501, "MEAN_MOTION_DOT": 4.395e-05, "MEAN_MOTION_DDOT": 0}, "tle": {"line1": "1 38481U 93036BTR 25345.35109837  .00004395  00000+0  26202-2 0  9994", "line2": "2 38481  73.9331   9.9560 0234467 310.4780  47.6118 13.94814903590418"}}, "geometry": {"type": "Point", "coordinates": [-0.04667508414751857, -10.937827516581006]}}, {"type": "Feature", "properties": {"norad_id": 38483, "name": "COSMOS 2251 DEB", "group": "cosmos-2251-debris", "lat": 38.085818157728085, "lon": 19.944351974483777, "alt_km": 767.0899133269431, "timestamp": "2025-12-15T07:02:38.013046+00:00", "meta": {"OBJECT_NAME": "COSMOS 2251 DEB", "OBJECT_ID": "1993-036BTT", "EPOCH": "2025-12-12T08:16:48.530496", "MEAN_MOTION": 14.28787654, "ECCENTRICITY": 0.01107994, "INCLINATION": 74.262, "RA_OF_ASC_NODE": 12.4521, "ARG_OF_PERICENTER": 118.0167, "MEAN_ANOMALY": 243.2246, "EPHEMERIS_TYPE": 0, "CLASSIFICATION_TYPE": "U", "NORAD_CAT_ID": 38483, "ELEMENT_SET_NO": 999, "REV_AT_EPOCH": 63472, "BSTAR": 0.0012977102, "MEAN_MOTION_DOT": 3.471e-05, "MEAN_MOTION_DDOT": 0}, "tle": {"line1": "1 38483U 93036BTT 25346.34500614  .00003471  00000+0  12977-2 0  9992", "line2": "2 38483  74.2620  12.4521 0110799 118.0167 243.2246 14.28787654634722"}}, "geometry": {"type": "Point", "coordinates": [19.944351974483777, 38.085818157728085]}}, {"type": "Feature", "properties": {"norad_id": 38486, "name": "COSMOS 2251 DEB", "group": "cosmos-2251-debris", "lat": 65.45656905720122, "lon": -121.04069171807217, "alt_km": 642.6934810552275, "timestamp": "2025-12-15T07:02:38.013056+00:00", "meta": {"OBJECT_NAME": "COSMOS 2251 DEB", "OBJECT_ID": "1993-036BTW", "EPOCH": "2025-12-14T08:43:16.817376", "MEAN_MOTION": 14.73317924, "ECCENTRICITY": 0.00302546, "INCLINATION": 73.9417, "RA_OF_ASC_NODE": 201.6743, "ARG_OF_PERICENTER": 345.7172, "MEAN_ANOMALY": 193.9267, "EPHEMERIS_TYPE": 0, "CLASSIFICATION_TYPE": "U", "NORAD_CAT_ID": 38486, "ELEMENT_SET_NO": 999, "REV_AT_EPOCH": 75458, "BSTAR": 0.0022812423, "MEAN_MOTION_DOT": 0.00014869, "MEAN_MOTION_DDOT": 0}, "tle": {"line1": "1 38486U 93036BTW 25348.36338909  .00014869  00000+0  22812-2 0  9997", "line2": "2 38486  73.9417 201.6743 0030254 345.7172 193.9267 14.73317924754585"}}, "geometry": {"type": "Point", "coordinates": [-121.04069171807217, 65.45656905720122]}}, {"type": "Feature", "properties": {"norad_id": 38487, "name": "COSMOS 2251 DEB", "group": "cosmos-2251-debris", "lat": -67.42295882107163, "lon": -107.8015261661288, "alt_km": 511.2769939755308, "timestamp": "2025-12-15T07:02:38.013066+00:00", "meta": {"OBJECT_NAME": "COSMOS 2251 DEB", "OBJECT_ID": "1993-036BTX", "EPOCH": "2025-12-14T09:21:38.424384", "MEAN_MOTION": 15.17499281, "ECCENTRICITY": 0.00213487, "INCLINATION": 73.9755, "RA_OF_ASC_NODE": 30.3633, "ARG_OF_PERICENTER": 202.5795, "MEAN_ANOMALY": 157.4464, "EPHEMERIS_TYPE": 0, "CLASSIFICATION_TYPE": "U", "NORAD_CAT_ID": 38487, "ELEMENT_SET_NO": 999, "REV_AT_EPOCH": 66825, "BSTAR": 0.0020388664, "MEAN_MOTION_DOT": 0.00041311, "MEAN_MOTION_DDOT": 0}, "tle": {"line1": "1 38487U 93036BTX 25348.39002806  .00041311  00000+0  20389-2 0  9994", "line2": "2 38487  73.9755  30.3633 0021348 202.5795 157.4464 15.17499281668259"}}, "geometry": {"type": "Point", "coordinates": [-107.8015261661288, -67.42295882107163]}}]}